[
    {
        "OBJECT_NAME": "COSMOS 2522 [GLONASS-M]",
        "OBJECT_ID": "2017-055A",
        "EPOCH": "2025-11-24T01:21:51.354432",
        "MEAN_MOTION": 2.13101963,
        "ECCENTRICITY": 0.0006738,
        "INCLINATION": 64.0754,
        "RA_OF_ASC_NODE": 198.8655,
        "ARG_OF_PERICENTER": 227.6607,
        "MEAN_ANOMALY": 132.3771,
        "EPHEMERIS_TYPE": 0,
        "CLASSIFICATION_TYPE": "U",
        "NORAD_CAT_ID": 42939,
        "ELEMENT_SET_NO": 999,
        "REV_AT_EPOCH": 6360,
        "BSTAR": 0,
        "MEAN_MOTION_DOT": 6e-07,
        "MEAN_MOTION_DDOT": 0
    },
    {
        "OBJECT_NAME": "COSMOS 2527 [GLONASS-M]",
        "OBJECT_ID": "2018-053A",
        "EPOCH": "2025-11-23T13:09:28.285920",
        "MEAN_MOTION": 2.13102201,
        "ECCENTRICITY": 0.0008485,
        "INCLINATION": 65.4626,
        "RA_OF_ASC_NODE": 80.7731,
        "ARG_OF_PERICENTER": 221.6565,
        "MEAN_ANOMALY": 138.2763,
        "EPHEMERIS_TYPE": 0,
        "CLASSIFICATION_TYPE": "U",
        "NORAD_CAT_ID": 43508,
        "ELEMENT_SET_NO": 999,
        "REV_AT_EPOCH": 5789,
        "BSTAR": 0,
        "MEAN_MOTION_DOT": 8e-08,
        "MEAN_MOTION_DDOT": 0
    },
    {
        "OBJECT_NAME": "COSMOS 2529 [GLONASS-M]",
        "OBJECT_ID": "2018-086A",
        "EPOCH": "2025-11-23T04:14:12.285312",
        "MEAN_MOTION": 2.13102001,
        "ECCENTRICITY": 0.00075955,
        "INCLINATION": 64.2915,
        "RA_OF_ASC_NODE": 199.5495,
        "ARG_OF_PERICENTER": 255.1465,
        "MEAN_ANOMALY": 104.8667,
        "EPHEMERIS_TYPE": 0,
        "CLASSIFICATION_TYPE": "U",
        "NORAD_CAT_ID": 43687,
        "ELEMENT_SET_NO": 999,
        "REV_AT_EPOCH": 5489,
        "BSTAR": 0,
        "MEAN_MOTION_DOT": 6.2e-07,
        "MEAN_MOTION_DDOT": 0
    },
    {
        "OBJECT_NAME": "COSMOS 2534 [GLONASS-M]",
        "OBJECT_ID": "2019-030A",
        "EPOCH": "2025-11-24T04:43:00.031296",
        "MEAN_MOTION": 2.13102176,
        "ECCENTRICITY": 0.0009329,
        "INCLINATION": 64.365,
        "RA_OF_ASC_NODE": 199.5178,
        "ARG_OF_PERICENTER": 283.088,
        "MEAN_ANOMALY": 273.8477,
        "EPHEMERIS_TYPE": 0,
        "CLASSIFICATION_TYPE": "U",
        "NORAD_CAT_ID": 44299,
        "ELEMENT_SET_NO": 999,
        "REV_AT_EPOCH": 5055,
        "BSTAR": 0,
        "MEAN_MOTION_DOT": 5.9e-07,
        "MEAN_MOTION_DDOT": 0
    },
    {
        "OBJECT_NAME": "COSMOS 2544 [GLONASS-M]",
        "OBJECT_ID": "2019-088A",
        "EPOCH": "2025-11-22T13:18:07.384896",
        "MEAN_MOTION": 2.13101971,
        "ECCENTRICITY": 0.00133383,
        "INCLINATION": 65.4495,
        "RA_OF_ASC_NODE": 80.6335,
        "ARG_OF_PERICENTER": 247.734,
        "MEAN_ANOMALY": 112.1174,
        "EPHEMERIS_TYPE": 0,
        "CLASSIFICATION_TYPE": "U",
        "NORAD_CAT_ID": 44850,
        "ELEMENT_SET_NO": 999,
        "REV_AT_EPOCH": 4631,
        "BSTAR": 0,
        "MEAN_MOTION_DOT": -2e-08,
        "MEAN_MOTION_DDOT": 0
    },
    {
        "OBJECT_NAME": "COSMOS 2545 [GLONASS-M]",
        "OBJECT_ID": "2020-018A",
        "EPOCH": "2025-11-22T06:44:28.068288",
        "MEAN_MOTION": 2.13102586,
        "ECCENTRICITY": 0.00121157,
        "INCLINATION": 64.4816,
        "RA_OF_ASC_NODE": 319.6878,
        "ARG_OF_PERICENTER": 247.2233,
        "MEAN_ANOMALY": 112.6594,
        "EPHEMERIS_TYPE": 0,
        "CLASSIFICATION_TYPE": "U",
        "NORAD_CAT_ID": 45358,
        "ELEMENT_SET_NO": 999,
        "REV_AT_EPOCH": 4425,
        "BSTAR": 0,
        "MEAN_MOTION_DOT": -3.9e-07,
        "MEAN_MOTION_DDOT": 0
    },
    {
        "OBJECT_NAME": "COSMOS 2547 [GLONASS-K]",
        "OBJECT_ID": "2020-075A",
        "EPOCH": "2025-11-22T22:30:48.375360",
        "MEAN_MOTION": 2.13099964,
        "ECCENTRICITY": 0.00064531,
        "INCLINATION": 64.5955,
        "RA_OF_ASC_NODE": 199.3578,
        "ARG_OF_PERICENTER": 230.6442,
        "MEAN_ANOMALY": 129.3965,
        "EPHEMERIS_TYPE": 0,
        "CLASSIFICATION_TYPE": "U",
        "NORAD_CAT_ID": 46805,
        "ELEMENT_SET_NO": 999,
        "REV_AT_EPOCH": 3951,
        "BSTAR": 0,
        "MEAN_MOTION_DOT": 6.3e-07,
        "MEAN_MOTION_DDOT": 0
    },
    {
        "OBJECT_NAME": "COSMOS 2557 [GLONASS-K]",
        "OBJECT_ID": "2022-075A",
        "EPOCH": "2025-11-24T01:00:26.024832",
        "MEAN_MOTION": 2.13101993,
        "ECCENTRICITY": 0.0013792,
        "INCLINATION": 64.4201,
        "RA_OF_ASC_NODE": 321.7094,
        "ARG_OF_PERICENTER": 275.6768,
        "MEAN_ANOMALY": 84.1794,
        "EPHEMERIS_TYPE": 0,
        "CLASSIFICATION_TYPE": "U",
        "NORAD_CAT_ID": 52984,
        "ELEMENT_SET_NO": 999,
        "REV_AT_EPOCH": 2634,
        "BSTAR": 0,
        "MEAN_MOTION_DOT": -2.9e-07,
        "MEAN_MOTION_DDOT": 0
    },
    {
        "OBJECT_NAME": "COSMOS 2559 [GLONASS-K]",
        "OBJECT_ID": "2022-130A",
        "EPOCH": "2025-11-23T20:39:58.829184",
        "MEAN_MOTION": 2.13101465,
        "ECCENTRICITY": 0.0012271,
        "INCLINATION": 64.3922,
        "RA_OF_ASC_NODE": 321.8059,
        "ARG_OF_PERICENTER": 192.8621,
        "MEAN_ANOMALY": 167.1204,
        "EPHEMERIS_TYPE": 0,
        "CLASSIFICATION_TYPE": "U",
        "NORAD_CAT_ID": 54031,
        "ELEMENT_SET_NO": 999,
        "REV_AT_EPOCH": 2431,
        "BSTAR": 0,
        "MEAN_MOTION_DOT": -3.1e-07,
        "MEAN_MOTION_DDOT": 0
    },
    {
        "OBJECT_NAME": "COSMOS 2564 [GLONASS-M]",
        "OBJECT_ID": "2022-161A",
        "EPOCH": "2025-11-23T16:55:47.405856",
        "MEAN_MOTION": 2.13102079,
        "ECCENTRICITY": 0.000885,
        "INCLINATION": 64.7373,
        "RA_OF_ASC_NODE": 199.5313,
        "ARG_OF_PERICENTER": 207.8394,
        "MEAN_ANOMALY": 152.2092,
        "EPHEMERIS_TYPE": 0,
        "CLASSIFICATION_TYPE": "U",
        "NORAD_CAT_ID": 54377,
        "ELEMENT_SET_NO": 999,
        "REV_AT_EPOCH": 2325,
        "BSTAR": 0,
        "MEAN_MOTION_DOT": 6.1e-07,
        "MEAN_MOTION_DDOT": 0
    },
    {
        "OBJECT_NAME": "COSMOS 2569 [GLONASS-K2]",
        "OBJECT_ID": "2023-114A",
        "EPOCH": "2025-11-24T04:30:54.756000",
        "MEAN_MOTION": 2.13103968,
        "ECCENTRICITY": 0.0009773,
        "INCLINATION": 65.1844,
        "RA_OF_ASC_NODE": 79.5405,
        "ARG_OF_PERICENTER": 286.9832,
        "MEAN_ANOMALY": 72.9114,
        "EPHEMERIS_TYPE": 0,
        "CLASSIFICATION_TYPE": "U",
        "NORAD_CAT_ID": 57517,
        "ELEMENT_SET_NO": 999,
        "REV_AT_EPOCH": 1789,
        "BSTAR": 0,
        "MEAN_MOTION_DOT": 1e-07,
        "MEAN_MOTION_DDOT": 0
    },
    {
        "OBJECT_NAME": "COSMOS 2584 [GLONASS-K2]",
        "OBJECT_ID": "2025-042A",
        "EPOCH": "2025-11-17T23:22:57.933696",
        "MEAN_MOTION": 2.13103154,
        "ECCENTRICITY": 0.00073923,
        "INCLINATION": 64.963,
        "RA_OF_ASC_NODE": 79.9894,
        "ARG_OF_PERICENTER": 210.4834,
        "MEAN_ANOMALY": 149.4551,
        "EPHEMERIS_TYPE": 0,
        "CLASSIFICATION_TYPE": "U",
        "NORAD_CAT_ID": 63130,
        "ELEMENT_SET_NO": 999,
        "REV_AT_EPOCH": 554,
        "BSTAR": 0,
        "MEAN_MOTION_DOT": -3.2e-07,
        "MEAN_MOTION_DDOT": 0
    },
    {
        "OBJECT_NAME": "COSMOS 2596 [GLONASS-K1]",
        "OBJECT_ID": "2025-206B",
        "EPOCH": "2025-11-20T03:56:33.583776",
        "MEAN_MOTION": 2.13100772,
        "ECCENTRICITY": 0.00139447,
        "INCLINATION": 64.7565,
        "RA_OF_ASC_NODE": 322.2593,
        "ARG_OF_PERICENTER": 303.9511,
        "MEAN_ANOMALY": 54.8129,
        "EPHEMERIS_TYPE": 0,
        "CLASSIFICATION_TYPE": "U",
        "NORAD_CAT_ID": 65590,
        "ELEMENT_SET_NO": 999,
        "REV_AT_EPOCH": 144,
        "BSTAR": 0,
        "MEAN_MOTION_DOT": -4.9e-07,
        "MEAN_MOTION_DDOT": 0
    }
]