COSMOS 2522 (752)       
1 42939U 17055A   25328.05684438  .00000060  00000+0  00000+0 0  9997
2 42939  64.0754 198.8655 0006738 227.6607 132.3771  2.13101963 63606
COSMOS 2527 (756)       
1 43508U 18053A   25327.54824405  .00000008  00000+0  00000+0 0  9994
2 43508  65.4626  80.7731 0008485 221.6565 138.2763  2.13102201 57890
COSMOS 2529 (757)       
1 43687U 18086A   25327.17653108  .00000062  00000+0  00000+0 0  9997
2 43687  64.2915 199.5495 0007595 255.1465 104.8667  2.13102001 54891
COSMOS 2534 (758)       
1 44299U 19030A   25328.19652814  .00000059  00000+0  00000+0 0  9999
2 44299  64.3650 199.5178 0009329 283.0880 273.8477  2.13102176 50552
COSMOS 2544 (759)       
1 44850U 19088A   25326.55425214 -.00000002  00000+0  00000+0 0  9994
2 44850  65.4495  80.6335 0013338 247.7340 112.1174  2.13101971 46312
COSMOS 2545 (760)       
1 45358U 20018A   25326.28088042 -.00000039  00000+0  00000+0 0  9997
2 45358  64.4816 319.6878 0012115 247.2233 112.6594  2.13102586 44252
COSMOS 2547 (705K)      
1 46805U 20075A   25326.93805990  .00000063  00000+0  00000+0 0  9995
2 46805  64.5955 199.3578 0006453 230.6442 129.3965  2.13099964 39516
COSMOS 2557 (706K)      
1 52984U 22075A   25328.04196788 -.00000029  00000+0  00000+0 0  9997
2 52984  64.4201 321.7094 0013792 275.6768  84.1794  2.13101993 26343
COSMOS 2559 (707K)      
1 54031U 22130A   25327.86109756 -.00000031  00000+0  00000+0 0  9995
2 54031  64.3922 321.8059 0012271 192.8621 167.1204  2.13101465 24315
COSMOS 2564 (761)       
1 54377U 22161A   25327.70540979  .00000061  00000+0  00000+0 0  9993
2 54377  64.7373 199.5313 0008850 207.8394 152.2092  2.13102079 23251
COSMOS 2569 (703K)      
1 57517U 23114A   25328.18813375  .00000010  00000+0  00000+0 0  9991
2 57517  65.1844  79.5405 0009773 286.9832  72.9114  2.13103968 17891
COSMOS 2584 (704K)      
1 63130U 25042A   25321.97428164 -.00000032  00000+0  00000+0 0  9994
2 63130  64.9630  79.9894 0007392 210.4834 149.4551  2.13103154  5545
COSMOS 2596 (708K)      
1 65590U 25206B   25324.16427759 -.00000049  00000+0  00000+0 0  9999
2 65590  64.7565 322.2593 0013944 303.9511  54.8129  2.13100772  1440
